{"type": "FeatureCollection", "features": [ {"type": "Feature", "properties": {"norad_id": 40115, "name": "WORLDVIEW-3 (WV-3)", "group": "resource", "lat": -69.49609177667423, "lon": -146.37526782382898, "alt_km": 617.4384155021326, "timestamp": "2025-12-08T23:34:03.626674+00:00", "meta": {"OBJECT_NAME": "WORLDVIEW-3 (WV-3)", "OBJECT_ID": "2014-048A", "EPOCH": "2025-12-08T14:21:29.924928", "MEAN_MOTION": 14.85496953, "ECCENTRICITY": 0.00044421, "INCLINATION": 97.862, "RA_OF_ASC_NODE": 54.9306, "ARG_OF_PERICENTER": 199.0707, "MEAN_ANOMALY": 161.0343, "EPHEMERIS_TYPE": 0, "CLASSIFICATION_TYPE": "U", "NORAD_CAT_ID": 40115, "ELEMENT_SET_NO": 999, "REV_AT_EPOCH": 61362, "BSTAR": 0.00027139127, "MEAN_MOTION_DOT": 2.289e-05, "MEAN_MOTION_DDOT": 0}, "tle": {"line1": "1 40115U 14048A   25342.59826302  .00002289  00000+0  27139-3 0  9994", "line2": "2 40115  97.8620  54.9306 0004442 199.0707 161.0343 14.85496953613629"}}, "geometry": {"type": "Point", "coordinates": [-146.37526782382898, -69.49609177667423]}}, {"type": "Feature", "properties": {"norad_id": 40118, "name": "GAOFEN-2", "group": "resource", "lat": 44.864662839195304, "lon": -129.76977145222887, "alt_km": 617.7960269232526, "timestamp": "2025-12-08T23:34:03.626684+00:00", "meta": {"OBJECT_NAME": "GAOFEN-2", "OBJECT_ID": "2014-049A", "EPOCH": "2025-12-08T14:51:10.762848", "MEAN_MOTION": 14.80598588, "ECCENTRICITY": 0.00084464, "INCLINATION": 98.0391, "RA_OF_ASC_NODE": 41.7801, "ARG_OF_PERICENTER": 124.904, "MEAN_ANOMALY": 235.2967, "EPHEMERIS_TYPE": 0, "CLASSIFICATION_TYPE": "U", "NORAD_CAT_ID": 40118, "ELEMENT_SET_NO": 999, "REV_AT_EPOCH": 61103, "BSTAR": 0.00022723167, "MEAN_MOTION_DOT": 1.691e-05, "MEAN_MOTION_DDOT": 0}, "tle": {"line1": "1 40118U 14049A   25342.61887457  .00001691  00000+0  22723-3 0  9999", "line2": "2 40118  98.0391  41.7801 0008446 124.9040 235.2967 14.80598588611030"}}, "geometry": {"type": "Point", "coordinates": [-129.76977145222887, 44.864662839195304]}}, {"type": "Feature", "properties": {"norad_id": 40143, "name": "YAOGAN-21", "group": "resource", "lat": -56.19727956242672, "lon": -164.3885418833808, "alt_km": 508.9150877357515, "timestamp": "2025-12-08T23:34:03.626695+00:00", "meta": {"OBJECT_NAME": "YAOGAN-21", "OBJECT_ID": "2014-053A", "EPOCH": "2025-12-08T14:39:02.273472", "MEAN_MOTION": 15.23603281, "ECCENTRICITY": 0.00099727, "INCLINATION": 97.1757, "RA_OF_ASC_NODE": 26.1025, "ARG_OF_PERICENTER": 54.4963, "MEAN_ANOMALY": 305.7204, "EPHEMERIS_TYPE": 0, "CLASSIFICATION_TYPE": "U", "NORAD_CAT_ID": 40143, "ELEMENT_SET_NO": 999, "REV_AT_EPOCH": 62591, "BSTAR": 0.00040273435, "MEAN_MOTION_DOT": 9.59e-05, "MEAN_MOTION_DDOT": 0}, "tle": {"line1": "1 40143U 14053A   25342.61044298  .00009590  00000+0  40273-3 0  9996", "line2": "2 40143  97.1757  26.1025 0009972  54.4963 305.7204 15.23603281625919"}}, "geometry": {"type": "Point", "coordinates": [-164.3885418833808, -56.19727956242672]}}, {"type": "Feature", "properties": {"norad_id": 40275, "name": "YAOGAN-22", "group": "resource", "lat": 2.337564777854892, "lon": 125.9041191076981, "alt_km": 1205.426525375461, "timestamp": "2025-12-08T23:34:03.626705+00:00", "meta": {"OBJECT_NAME": "YAOGAN-22", "OBJECT_ID": "2014-063A", "EPOCH": "2025-12-08T08:57:13.359456", "MEAN_MOTION": 13.15522491, "ECCENTRICITY": 0.00059259, "INCLINATION": 100.7419, "RA_OF_ASC_NODE": 125.7309, "ARG_OF_PERICENTER": 258.7958, "MEAN_ANOMALY": 101.2488, "EPHEMERIS_TYPE": 0, "CLASSIFICATION_TYPE": "U", "NORAD_CAT_ID": 40275, "ELEMENT_SET_NO": 999, "REV_AT_EPOCH": 53472, "BSTAR": 0.0001076751, "MEAN_MOTION_DOT": -6e-08, "MEAN_MOTION_DDOT": 0}, "tle": {"line1": "1 40275U 14063A   25342.37307129 -.00000006  00000+0  10768-3 0  9991", "line2": "2 40275 100.7419 125.7309 0005925 258.7958 101.2488 13.15522491534722"}}, "geometry": {"type": "Point", "coordinates": [125.9041191076981, 2.337564777854892]}}, {"type": "Feature", "properties": {"norad_id": 40298, "name": "ASNARO", "group": "resource", "lat": -18.51793303220972, "lon": 61.50366139695695, "alt_km": 516.1157361783144, "timestamp": "2025-12-08T23:34:03.626716+00:00", "meta": {"OBJECT_NAME": "ASNARO", "OBJECT_ID": "2014-070A", "EPOCH": "2025-12-08T14:09:57.814272", "MEAN_MOTION": 15.1936081, "ECCENTRICITY": 0.00053696, "INCLINATION": 97.3652, "RA_OF_ASC_NODE": 58.6385, "ARG_OF_PERICENTER": 133.7391, "MEAN_ANOMALY": 226.429, "EPHEMERIS_TYPE": 0, "CLASSIFICATION_TYPE": "U", "NORAD_CAT_ID": 40298, "ELEMENT_SET_NO": 999, "REV_AT_EPOCH": 61506, "BSTAR": 0.00066029766, "MEAN_MOTION_DOT": 0.00013915, "MEAN_MOTION_DDOT": 0}, "tle": {"line1": "1 40298U 14070A   25342.59025248  .00013915  00000+0  66030-3 0  9992", "line2": "2 40298  97.3652  58.6385 0005369 133.7391 226.4290 15.19360810615069"}}, "geometry": {"type": "Point", "coordinates": [61.50366139695695, -18.51793303220972]}}, {"type": "Feature", "properties": {"norad_id": 40310, "name": "YAOGAN-24", "group": "resource", "lat": 1.7457893228264443, "lon": -65.69521160353568, "alt_km": 635.2379761867505, "timestamp": "2025-12-08T23:34:03.626726+00:00", "meta": {"OBJECT_NAME": "YAOGAN-24", "OBJECT_ID": "2014-072A", "EPOCH": "2025-12-08T14:37:47.928864", "MEAN_MOTION": 14.76164939, "ECCENTRICITY": 0.00145698, "INCLINATION": 98.1225, "RA_OF_ASC_NODE": 113.6811, "ARG_OF_PERICENTER": 150.7966, "MEAN_ANOMALY": 209.4061, "EPHEMERIS_TYPE": 0, "CLASSIFICATION_TYPE": "U", "NORAD_CAT_ID": 40310, "ELEMENT_SET_NO": 999, "REV_AT_EPOCH": 59560, "BSTAR": 0.00028940736, "MEAN_MOTION_DOT": 1.951e-05, "MEAN_MOTION_DDOT": 0}, "tle": {"line1": "1 40310U 14072A   25342.60958251  .00001951  00000+0  28941-3 0  9996", "line2": "2 40310  98.1225 113.6811 0014569 150.7966 209.4061 14.76164939595604"}}, "geometry": {"type": "Point", "coordinates": [-65.69521160353568, 1.7457893228264443]}}, {"type": "Feature", "properties": {"norad_id": 40336, "name": "CBERS 4", "group": "resource", "lat": 70.46700646073594, "lon": -114.47500626885109, "alt_km": 765.4191421090454, "timestamp": "2025-12-08T23:34:03.626736+00:00", "meta": {"OBJECT_NAME": "CBERS 4", "OBJECT_ID": "2014-079A", "EPOCH": "2025-12-08T14:42:13.139712", "MEAN_MOTION": 14.35515699, "ECCENTRICITY": 0.00015632, "INCLINATION": 98.3316, "RA_OF_ASC_NODE": 40.7707, "ARG_OF_PERICENTER": 119.3209, "MEAN_ANOMALY": 240.8134, "EPHEMERIS_TYPE": 0, "CLASSIFICATION_TYPE": "U", "NORAD_CAT_ID": 40336, "ELEMENT_SET_NO": 999, "REV_AT_EPOCH": 57661, "BSTAR": 0.00012617766, "MEAN_MOTION_DOT": 3.21e-06, "MEAN_MOTION_DDOT": 0}, "tle": {"line1": "1 40336U 14079A   25342.61265208  .00000321  00000+0  12618-3 0  9999", "line2": "2 40336  98.3316  40.7707 0001563 119.3209 240.8134 14.35515699576618"}}, "geometry": {"type": "Point", "coordinates": [-114.47500626885109, 70.46700646073594]}}, {"type": "Feature", "properties": {"norad_id": 40362, "name": "YAOGAN-26", "group": "resource", "lat": 76.3951082839691, "lon": -165.38411489753244, "alt_km": 439.3900615799221, "timestamp": "2025-12-08T23:34:03.626747+00:00", "meta": {"OBJECT_NAME": "YAOGAN-26", "OBJECT_ID": "2014-088A", "EPOCH": "2025-12-08T13:45:57.194496", "MEAN_MOTION": 15.39076869, "ECCENTRICITY": 0.00066851, "INCLINATION": 97.0646, "RA_OF_ASC_NODE": 343.396, "ARG_OF_PERICENTER": 41.9276, "MEAN_ANOMALY": 318.2481, "EPHEMERIS_TYPE": 0, "CLASSIFICATION_TYPE": "U", "NORAD_CAT_ID": 40362, "ELEMENT_SET_NO": 999, "REV_AT_EPOCH": 60830, "BSTAR": 0.00063117014, "MEAN_MOTION_DOT": 0.00024419, "MEAN_MOTION_DDOT": 0}, "tle": {"line1": "1 40362U 14088A   25342.57357864  .00024419  00000+0  63117-3 0  9997", "line2": "2 40362  97.0646 343.3960 0006685  41.9276 318.2481 15.39076869608309"}}, "geometry": {"type": "Point", "coordinates": [-165.38411489753244, 76.3951082839691]}}, {"type": "Feature", "properties": {"norad_id": 40376, "name": "SMAP", "group": "resource", "lat": -64.15748512691336, "lon": 4.924156946562475, "alt_km": 690.375430229903, "timestamp": "2025-12-08T23:34:03.626757+00:00", "meta": {"OBJECT_NAME": "SMAP", "OBJECT_ID": "2015-003A", "EPOCH": "2025-12-08T14:01:10.877952", "MEAN_MOTION": 14.63337619, "ECCENTRICITY": 0.00012095, "INCLINATION": 98.129, "RA_OF_ASC_NODE": 347.3679, "ARG_OF_PERICENTER": 88.083, "MEAN_ANOMALY": 272.051, "EPHEMERIS_TYPE": 0, "CLASSIFICATION_TYPE": "U", "NORAD_CAT_ID": 40376, "ELEMENT_SET_NO": 999, "REV_AT_EPOCH": 57974, "BSTAR": 0.00022781378, "MEAN_MOTION_DOT": 1.129e-05, "MEAN_MOTION_DDOT": 0}, "tle": {"line1": "1 40376U 15003A   25342.58415368  .00001129  00000+0  22781-3 0  9990", "line2": "2 40376  98.1290 347.3679 0001209  88.0830 272.0510 14.63337619579741"}}, "geometry": {"type": "Point", "coordinates": [4.924156946562475, -64.15748512691336]}}, {"type": "Feature", "properties": {"norad_id": 40536, "name": "KOMPSAT-3A", "group": "resource", "lat": -20.783139858995014, "lon": -39.943235385257495, "alt_km": 443.2210764526508, "timestamp": "2025-12-08T23:34:03.626768+00:00", "meta": {"OBJECT_NAME": "KOMPSAT-3A", "OBJECT_ID": "2015-014A", "EPOCH": "2025-12-08T14:19:27.466752", "MEAN_MOTION": 15.43717367, "ECCENTRICITY": 0.00044799, "INCLINATION": 97.679, "RA_OF_ASC_NODE": 316.7151, "ARG_OF_PERICENTER": 135.4469, "MEAN_ANOMALY": 224.7139, "EPHEMERIS_TYPE": 0, "CLASSIFICATION_TYPE": "U", "NORAD_CAT_ID": 40536, "ELEMENT_SET_NO": 999, "REV_AT_EPOCH": 59231, "BSTAR": 0.00057033747, "MEAN_MOTION_DOT": 0.00025715, "MEAN_MOTION_DDOT": 0}, "tle": {"line1": "1 40536U 15014A   25342.59684568  .00025715  00000+0  57034-3 0  9997", "line2": "2 40536  97.6790 316.7151 0004479 135.4469 224.7139 15.43717367592310"}}, "geometry": {"type": "Point", "coordinates": [-39.943235385257495, -20.783139858995014]}}]}